GSAT0101 (PRN E11)      
1 37846U 11060A   24039.50135553 -.00000072  00000+0  00000+0 0  9999
2 37846  57.1260   5.0415 0003675 344.2126  15.7639  1.70475691 76463
GSAT0102 (PRN E12)      
1 37847U 11060B   24038.24941458 -.00000069  00000+0  00000+0 0  9995
2 37847  57.1265   5.0754 0005187 325.2491  32.3283  1.70475163 76441
GSAT0103 (PRN E19)      
1 38857U 12055A   24038.95403366 -.00000006  00000+0  00000+0 0  9992
2 38857  55.3476 125.1859 0004579 258.6805 101.2957  1.70473391 70482
GSAT0104 (PRN E20)      
1 38858U 12055B   24038.33670027 -.00000006  00000+0  00000+0 0  9995
2 38858  55.3462 125.2045 0002199 242.2834 117.7186  1.70473609 70335
GSAT0201 (PRN E18)      
1 40128U 14050A   24037.03421368 -.00000047  00000+0  00000+0 0  9998
2 40128  49.7884 308.3720 1605831 146.1591 225.2380  1.85519517 62328
GSAT0202 (PRN E14)      
1 40129U 14050B   24038.37100205 -.00000039  00000+0  00000+0 0  9992
2 40129  49.8048 307.3928 1604248 147.0117 224.1335  1.85520150 64512
GSAT0203 (PRN E26)      
1 40544U 15017A   24040.45374362 -.00000076  00000+0  00000+0 0  9997
2 40544  56.9214   4.9670 0004981 281.9479  77.9823  1.70475080 54562
GSAT0204 (PRN E22)      
1 40545U 15017B   24040.12117479 -.00000075  00000+0  00000+0 0  9995
2 40545  56.9275   4.9911 0004420 271.9010  88.0352  1.70475292 17605
GSAT0205 (PRN E24)      
1 40889U 15045A   24039.30325916  .00000086  00000+0  00000+0 0  9993
2 40889  55.2802 245.3577 0006432  39.2053 320.8980  1.70473286 52356
GSAT0206 (PRN E30)      
1 40890U 15045B   24040.11047418  .00000080  00000+0  00000+0 0  9998
2 40890  55.2791 245.3309 0004376  40.2391 319.8445  1.70473352 52392
GSAT0209 (PRN E09)      
1 41174U 15079A   24039.69412365 -.00000004  00000+0  00000+0 0  9996
2 41174  55.3658 124.8737 0003198 307.0814  52.9223  1.70474650 50122
GSAT0208 (PRN E08)      
1 41175U 15079B   24038.15405767 -.00000006  00000+0  00000+0 0  9997
2 41175  55.3641 124.9141 0002815 301.8024  58.1944  1.70474630 50514
GSAT0211 (PRN E02)      
1 41549U 16030A   24040.03619598  .00000081  00000+0  00000+0 0  9991
2 41549  55.4269 245.3302 0004208  15.8307 344.2344  1.70473342 48022
GSAT0210 (PRN E01)      
1 41550U 16030B   24038.56771677  .00000090  00000+0  00000+0 0  9995
2 41550  55.4272 245.3719 0001839 359.0269   1.0331  1.70473612 47996
GSAT0207 (PRN E07)      
1 41859U 16069A   24040.57444915 -.00000002  00000+0  00000+0 0  9999
2 41859  55.0301 124.8825 0004274 284.3742  75.6169  1.70474637 44764
GSAT0212 (PRN E03)      
1 41860U 16069B   24038.66913751 -.00000006  00000+0  00000+0 0  9991
2 41860  55.0271 124.9320 0001928 318.3960  41.6156  1.70474956 44983
GSAT0213 (PRN E04)      
1 41861U 16069C   24039.62307185 -.00000005  00000+0  00000+0 0  9996
2 41861  55.0296 124.9119 0004374 266.5245  93.4575  1.70473374 44865
GSAT0214 (PRN E05)      
1 41862U 16069D   24037.42325422 -.00000006  00000+0  00000+0 0  9998
2 41862  55.0677 124.9806 0100930 276.1512  82.7222  1.70457506 44950
GSAT0215 (PRN E21)      
1 43055U 17079A   24039.08574082  .00000088  00000+0  00000+0 0  9997
2 43055  55.4044 245.1802 0001420  13.8481 346.2135  1.70474082 38328
GSAT0216 (PRN E25)      
1 43056U 17079B   24039.96411146  .00000082  00000+0  00000+0 0  9990
2 43056  55.4048 245.1557 0002249 330.1487  29.8905  1.70474211 38357
GSAT0217 (PRN E27)      
1 43057U 17079C   24038.42479614  .00000091  00000+0  00000+0 0  9995
2 43057  55.4039 245.1972 0002895 352.8758   7.1807  1.70474114 38316
GSAT0218 (PRN E31)      
1 43058U 17079D   24039.23139936  .00000087  00000+0  00000+0 0  9991
2 43058  55.4023 245.1723 0002328 315.3428  44.6953  1.70474154 38326
GSAT0221 (PRN E15)      
1 43564U 18060A   24040.30421885 -.00000075  00000+0  00000+0 0  9999
2 43564  57.3016   4.9392 0005707 293.5031  66.4229  1.70475370 34522
GSAT0222 (PRN E33)      
1 43565U 18060B   24039.93594862 -.00000074  00000+0  00000+0 0  9992
2 43565  57.3043   4.9505 0004375 272.7634  87.1734  1.70475086 34566
GSAT0219 (PRN E36)      
1 43566U 18060C   24039.57145872 -.00000072  00000+0  00000+0 0  9994
2 43566  57.3045   4.9624 0005070 301.3140  58.6240  1.70475393 34538
GSAT0220 (PRN E13)      
1 43567U 18060D   24039.79197942 -.00000073  00000+0  00000+0 0  9995
2 43567  57.3038   4.9569 0005150 297.2963  62.6384  1.70475153 34521
GSAT0223 (PRN E34)      
1 49809U 21116A   24040.51342433 -.00000076  00000+0  00000+0 0  9998
2 49809  57.2952   4.8325 0002533 263.4709 269.5981  1.70475255 13547
GSAT0224 (PRN E10)      
1 49810U 21116B   24040.05386587 -.00000074  00000+0  00000+0 0  9995
2 49810  57.2959   4.8433 0001988 278.1243  85.3987  1.70475279 13563
